
# Worst residual: 8.09 km
# MJD 58191.000000 (2018 Mar 14  0:00)
WE0913A = DSCOVR object = 2015-007B = NORAD 40391
1 40391U 15007B   18073.49919926  .00000000  00000-0  00000-0 2    03
2 40391 073.5760 351.1063 6952103 206.6188 324.1958 00.06210459    02

# Worst residual: 8.45 km
# MJD 58192.000000 (2018 Mar 15  0:00)
WE0913A = DSCOVR object = 2015-007B = NORAD 40391
1 40391U 15007B   18074.49919926  .00000000  00000-0  00000-0 2    04
2 40391 073.5782 351.0877 6956189 206.4689 346.6332 00.06180804    05

# Worst residual: 5.02 km
# MJD 58193.000000 (2018 Mar 16  0:00)
WE0913A = DSCOVR object = 2015-007B = NORAD 40391
1 40391U 15007B   18075.49919926  .00000000  00000-0  00000-0 2    05
2 40391 073.5805 351.0866 6950827 206.4143 008.9102 00.06194474    08

# Worst residual: 27.49 km
# MJD 58194.000000 (2018 Mar 17  0:00)
WE0913A = DSCOVR object = 2015-007B = NORAD 40391
1 40391U 15007B   18076.49919926  .00000000  00000-0  00000-0 2    06
2 40391 073.5716 351.0974 6953741 206.6599 031.0037 00.06156865    00

# Worst residual: 53.89 km
# MJD 58195.000000 (2018 Mar 18  0:00)
WE0913A = DSCOVR object = 2015-007B = NORAD 40391
1 40391U 15007B   18077.49919926  .00000000  00000-0  00000-0 2    07
2 40391 073.3890 351.1852 6946915 207.4130 052.2192 00.06048190    00

# Worst residual: 44.82 km
# MJD 58196.000000 (2018 Mar 19  0:00)
WE0913A = DSCOVR object = 2015-007B = NORAD 40391
1 40391U 15007B   18078.49919926  .00000000  00000-0  00000-0 2    08
2 40391 072.8661 351.2918 6912975 208.0530 073.2792 00.05977953    00

# Worst residual: 21.62 km
# MJD 58197.000000 (2018 Mar 20  0:00)
WE0913A = DSCOVR object = 2015-007B = NORAD 40391
1 40391U 15007B   18079.49919926  .00000000  00000-0  00000-0 2    09
2 40391 072.4309 351.3013 6886302 208.2240 094.8382 00.05965437    04

# Worst residual: 7.90 km
# MJD 58198.000000 (2018 Mar 21  0:00)
WE0913A = DSCOVR object = 2015-007B = NORAD 40391
1 40391U 15007B   18080.49919926  .00000000  00000-0  00000-0 2    01
2 40391 072.2338 351.2770 6879603 208.2017 116.5196 00.05968914    09

# Worst residual: 7.82 km
# MJD 58199.000000 (2018 Mar 22  0:00)
WE0913A = DSCOVR object = 2015-007B = NORAD 40391
1 40391U 15007B   18081.49919926  .00000000  00000-0  00000-0 2    02
2 40391 072.1894 351.2664 6889002 208.1376 138.1423 00.05976930    08

# Worst residual: 12.82 km
# MJD 58200.000000 (2018 Mar 23  0:00)
WE0913A = DSCOVR object = 2015-007B = NORAD 40391
1 40391U 15007B   18082.49919926  .00000000  00000-0  00000-0 2    03
2 40391 072.2273 351.2812 6911025 208.0880 159.6828 00.05988856    02

# Worst residual: 16.97 km
# MJD 58201.000000 (2018 Mar 24  0:00)
WE0913A = DSCOVR object = 2015-007B = NORAD 40391
1 40391U 15007B   18083.49919926  .00000000  00000-0  00000-0 2    04
2 40391 072.3022 351.3187 6942870 208.0851 181.1587 00.06005384    00

# Worst residual: 19.88 km
# MJD 58202.000000 (2018 Mar 25  0:00)
WE0913A = DSCOVR object = 2015-007B = NORAD 40391
1 40391U 15007B   18084.49919926  .00000000  00000-0  00000-0 2    05
2 40391 072.3827 351.3690 6981585 208.1511 202.6034 00.06026990    04

# Worst residual: 21.61 km
# MJD 58203.000000 (2018 Mar 26  0:00)
WE0913A = DSCOVR object = 2015-007B = NORAD 40391
1 40391U 15007B   18085.49919926  .00000000  00000-0  00000-0 2    06
2 40391 072.4478 351.4190 7023788 208.2987 224.0616 00.06053644    04

# Worst residual: 22.13 km
# MJD 58204.000000 (2018 Mar 27  0:00)
WE0913A = DSCOVR object = 2015-007B = NORAD 40391
1 40391U 15007B   18086.49919926  .00000000  00000-0  00000-0 2    07
2 40391 072.4861 351.4549 7065760 208.5285 245.5867 00.06084643    07

# Worst residual: 21.52 km
# MJD 58205.000000 (2018 Mar 28  0:00)
WE0913A = DSCOVR object = 2015-007B = NORAD 40391
1 40391U 15007B   18087.49919926  .00000000  00000-0  00000-0 2    08
2 40391 072.4961 351.4663 7103679 208.8253 267.2361 00.06118324    09

# Worst residual: 19.47 km
# MJD 58206.000000 (2018 Mar 29  0:00)
WE0913A = DSCOVR object = 2015-007B = NORAD 40391
1 40391U 15007B   18088.49919926  .00000000  00000-0  00000-0 2    09
2 40391 072.4862 351.4503 7134075 209.1543 289.0633 00.06151560    05

# Worst residual: 15.86 km
# MJD 58207.000000 (2018 Mar 30  0:00)
WE0913A = DSCOVR object = 2015-007B = NORAD 40391
1 40391U 15007B   18089.49919926  .00000000  00000-0  00000-0 2    00
2 40391 072.4719 351.4155 7154570 209.4557 311.1048 00.06178561    06

# Worst residual: 10.29 km
# MJD 58208.000000 (2018 Mar 31  0:00)
WE0913A = DSCOVR object = 2015-007B = NORAD 40391
1 40391U 15007B   18090.49919926  .00000000  00000-0  00000-0 2    02
2 40391 072.4677 351.3862 7165673 209.6339 333.3546 00.06187388    05

# Worst residual: 9.24 km
# MJD 58209.000000 (2018 Apr  1  0:00)
WE0913A = DSCOVR object = 2015-007B = NORAD 40391
1 40391U 15007B   18091.49919926  .00000000  00000-0  00000-0 2    03
2 40391 072.4607 351.3918 7175340 209.5874 355.6655 00.06157050    06

# Worst residual: 8.03 km
# MJD 58210.000000 (2018 Apr  2  0:00)
WE0913A = DSCOVR object = 2015-007B = NORAD 40391
1 40391U 15007B   18092.49919926  .00000000  00000-0  00000-0 2    04
2 40391 072.4512 351.3859 7170334 209.5757 017.8779 00.06172026    07

# Worst residual: 14.12 km
# MJD 58211.000000 (2018 Apr  3  0:00)
WE0913A = DSCOVR object = 2015-007B = NORAD 40391
1 40391U 15007B   18093.49919926  .00000000  00000-0  00000-0 2    05
2 40391 072.4031 351.4190 7168765 209.7321 039.9568 00.06150305    03

# Worst residual: 16.81 km
# MJD 58212.000000 (2018 Apr  4  0:00)
WE0913A = DSCOVR object = 2015-007B = NORAD 40391
1 40391U 15007B   18094.49919926  .00000000  00000-0  00000-0 2    06
2 40391 072.2680 351.4531 7163734 209.9451 061.7995 00.06120145    03

# Worst residual: 17.77 km
# MJD 58213.000000 (2018 Apr  5  0:00)
WE0913A = DSCOVR object = 2015-007B = NORAD 40391
1 40391U 15007B   18095.49919926  .00000000  00000-0  00000-0 2    07
2 40391 072.0596 351.4592 7155536 210.1518 083.4728 00.06093753    02

# Worst residual: 17.59 km
# MJD 58214.000000 (2018 Apr  6  0:00)
WE0913A = DSCOVR object = 2015-007B = NORAD 40391
1 40391U 15007B   18096.49919926  .00000000  00000-0  00000-0 2    08
2 40391 071.8022 351.4264 7145907 210.3328 105.0499 00.06073515    01
